sat16139
1 16139U 85094B   20046.88290225  .00000010  00000-0 -24287-5 0  9994
2 16139  82.6145 319.6981 0001776  60.0478   8.2561 12.62402706583346
